[{"OBJECT_NAME":"STARLINK-5413","OBJECT_ID":"2022-175BC","EPOCH":"2026-03-09T01:26:35.019456","MEAN_MOTION":15.08838431,"ECCENTRICITY":0.00014623,"INCLINATION":53.2183,"RA_OF_ASC_NODE":17.1182,"ARG_OF_PERICENTER":89.8611,"MEAN_ANOMALY":270.2549,"EPHEMERIS_TYPE":0,"CLASSIFICATION_TYPE":"U","NORAD_CAT_ID":54808,"ELEMENT_SET_NO":999,"REV_AT_EPOCH":18024,"BSTAR":2.3896267e-5,"MEAN_MOTION_DOT":9.2e-7,"MEAN_MOTION_DDOT":0},{"OBJECT_NAME":"ICEYE-X37","OBJECT_ID":"2024-043E","EPOCH":"2026-03-09T21:28:27.980256","MEAN_MOTION":15.05207146,"ECCENTRICITY":0.00148076,"INCLINATION":97.8149,"RA_OF_ASC_NODE":204.4924,"ARG_OF_PERICENTER":351.2295,"MEAN_ANOMALY":8.867,"EPHEMERIS_TYPE":0,"CLASSIFICATION_TYPE":"U","NORAD_CAT_ID":59102,"ELEMENT_SET_NO":999,"REV_AT_EPOCH":11014,"BSTAR":0.00044484532,"MEAN_MOTION_DOT":6.299e-5,"MEAN_MOTION_DDOT":0}]
